DISKSAT B               
1 67220U 25305B   26014.78557857  .00005298  00000+0  37045-3 0  9992
2 67220  45.0013 175.9037 0001536  33.0449 327.0521 15.06332316  4163
DISKSAT D               
1 67221U 25305C   26015.84748710  .00005436  00000+0  37987-3 0  9990
2 67221  45.0016 170.3041 0001840  51.3120 308.7919 15.06312701  4329
DISKSAT A               
1 67222U 25305D   26015.98133703  .00007213  00000+0  49905-3 0  9994
2 67222  45.0019 169.6118 0001756  62.6798 297.4256 15.06283702  4338
ELECTRON KICK STAGE R/B 
1 67223U 25305E   26015.79161899  .00083499  10358-4  71545-3 0  9998
2 67223  44.9842 159.8036 0161646 305.5551  53.0364 15.54084922  4446
TJS-23                  
1 67226U 25306A   26015.02369839  .00000044  00000+0  00000+0 0  9999
2 67226   5.9360 298.2773 0000584  63.5446 296.6765  1.00270234   359
CZ-5 R/B                
1 67227U 25306B   26014.14624916  .00006763  00000+0  18958-2 0  9990
2 67227  16.2725 290.8683 7577903 194.1146 117.2677  1.92528837   498
QPS-SAR-15              
1 67228U 25307A   26015.91487918  .00003181  00000+0  28443-3 0  9999
2 67228  42.0084 343.1788 0007675  76.3108 283.8571 14.97374122  3848
ELECTRON KICK STAGE R/B 
1 67230U 25307C   26016.09048044  .18058906  85429-5  45823-3 0  9994
2 67230  41.9939 323.2498 0017239 116.5376 243.7271 16.44299347  2486
SPACEMOBILE-006         
1 67232U 25309A   26015.96848943 -.00000414  00000+0 -45399-5 0  9999
2 67232  52.9986 308.4071 0011995  31.9129 328.2588 15.17742425  3472
LVM3 R/B                
1 67233U 25309B   26015.94139184  .00005259  00000+0  25780-3 0  9998
2 67233  52.9289 307.9949 0011818  56.7302 303.4822 15.19686813  3475
2025-310A               
1 67234U 25310A   26014.72283539  .00000009  00000+0  86937-5 0  9991
2 67234  97.9664  24.2349 0001912 179.1290 180.9923 14.75705364  2995
