CCSDS_OMM_VERS = 2.0
CREATION_DATE  = 
ORIGINATOR     = 

OBJECT_NAME    = DISKSAT B
OBJECT_ID      = 2025-305B
CENTER_NAME    = EARTH
REF_FRAME      = TEME
TIME_SYSTEM    = UTC
MEAN_ELEMENT_THEORY = SGP/SGP4

EPOCH          = 2026-01-14T18:51:13.988448
MEAN_MOTION    = 15.06332316
ECCENTRICITY   = .0001536
INCLINATION    = 45.0013
RA_OF_ASC_NODE = 175.9037
ARG_OF_PERICENTER = 33.0449
MEAN_ANOMALY   = 327.0521

EPHEMERIS_TYPE = 0
CLASSIFICATION_TYPE = U
NORAD_CAT_ID   = 67220
ELEMENT_SET_NO = 999
REV_AT_EPOCH   = 416
BSTAR          = .37045E-3
MEAN_MOTION_DOT = .5298E-4
MEAN_MOTION_DDOT = 0

CCSDS_OMM_VERS = 2.0
CREATION_DATE  = 
ORIGINATOR     = 

OBJECT_NAME    = DISKSAT D
OBJECT_ID      = 2025-305C
CENTER_NAME    = EARTH
REF_FRAME      = TEME
TIME_SYSTEM    = UTC
MEAN_ELEMENT_THEORY = SGP/SGP4

EPOCH          = 2026-01-15T20:20:22.885440
MEAN_MOTION    = 15.06312701
ECCENTRICITY   = .000184
INCLINATION    = 45.0016
RA_OF_ASC_NODE = 170.3041
ARG_OF_PERICENTER = 51.3120
MEAN_ANOMALY   = 308.7919

EPHEMERIS_TYPE = 0
CLASSIFICATION_TYPE = U
NORAD_CAT_ID   = 67221
ELEMENT_SET_NO = 999
REV_AT_EPOCH   = 432
BSTAR          = .37987E-3
MEAN_MOTION_DOT = .5436E-4
MEAN_MOTION_DDOT = 0

CCSDS_OMM_VERS = 2.0
CREATION_DATE  = 
ORIGINATOR     = 

OBJECT_NAME    = DISKSAT A
OBJECT_ID      = 2025-305D
CENTER_NAME    = EARTH
REF_FRAME      = TEME
TIME_SYSTEM    = UTC
MEAN_ELEMENT_THEORY = SGP/SGP4

EPOCH          = 2026-01-15T23:33:07.519392
MEAN_MOTION    = 15.06283702
ECCENTRICITY   = .00017566
INCLINATION    = 45.0019
RA_OF_ASC_NODE = 169.6118
ARG_OF_PERICENTER = 62.6798
MEAN_ANOMALY   = 297.4256

EPHEMERIS_TYPE = 0
CLASSIFICATION_TYPE = U
NORAD_CAT_ID   = 67222
ELEMENT_SET_NO = 999
REV_AT_EPOCH   = 433
BSTAR          = .49904997E-3
MEAN_MOTION_DOT = .7213E-4
MEAN_MOTION_DDOT = 0

CCSDS_OMM_VERS = 2.0
CREATION_DATE  = 
ORIGINATOR     = 

OBJECT_NAME    = ELECTRON KICK STAGE R/B
OBJECT_ID      = 2025-305E
CENTER_NAME    = EARTH
REF_FRAME      = TEME
TIME_SYSTEM    = UTC
MEAN_ELEMENT_THEORY = SGP/SGP4

EPOCH          = 2026-01-15T18:59:55.880736
MEAN_MOTION    = 15.54084922
ECCENTRICITY   = .01616467
INCLINATION    = 44.9842
RA_OF_ASC_NODE = 159.8036
ARG_OF_PERICENTER = 305.5551
MEAN_ANOMALY   = 53.0364

EPHEMERIS_TYPE = 0
CLASSIFICATION_TYPE = U
NORAD_CAT_ID   = 67223
ELEMENT_SET_NO = 999
REV_AT_EPOCH   = 444
BSTAR          = .71544739E-3
MEAN_MOTION_DOT = .83499E-3
MEAN_MOTION_DDOT = .10357709E-4

CCSDS_OMM_VERS = 2.0
CREATION_DATE  = 
ORIGINATOR     = 

OBJECT_NAME    = TJS-23
OBJECT_ID      = 2025-306A
CENTER_NAME    = EARTH
REF_FRAME      = TEME
TIME_SYSTEM    = UTC
MEAN_ELEMENT_THEORY = SGP/SGP4

EPOCH          = 2026-01-15T00:34:07.540896
MEAN_MOTION    = 1.00270234
ECCENTRICITY   = .00005842
INCLINATION    = 5.9360
RA_OF_ASC_NODE = 298.2773
ARG_OF_PERICENTER = 63.5446
MEAN_ANOMALY   = 296.6765

EPHEMERIS_TYPE = 0
CLASSIFICATION_TYPE = U
NORAD_CAT_ID   = 67226
ELEMENT_SET_NO = 999
REV_AT_EPOCH   = 35
BSTAR          = 0
MEAN_MOTION_DOT = .44E-6
MEAN_MOTION_DDOT = 0

CCSDS_OMM_VERS = 2.0
CREATION_DATE  = 
ORIGINATOR     = 

OBJECT_NAME    = CZ-5 R/B
OBJECT_ID      = 2025-306B
CENTER_NAME    = EARTH
REF_FRAME      = TEME
TIME_SYSTEM    = UTC
MEAN_ELEMENT_THEORY = SGP/SGP4

EPOCH          = 2026-01-14T03:30:35.927424
MEAN_MOTION    = 1.92528837
ECCENTRICITY   = .75779031
INCLINATION    = 16.2725
RA_OF_ASC_NODE = 290.8683
ARG_OF_PERICENTER = 194.1146
MEAN_ANOMALY   = 117.2677

EPHEMERIS_TYPE = 0
CLASSIFICATION_TYPE = U
NORAD_CAT_ID   = 67227
ELEMENT_SET_NO = 999
REV_AT_EPOCH   = 49
BSTAR          = .18958467E-2
MEAN_MOTION_DOT = .6763E-4
MEAN_MOTION_DDOT = 0

CCSDS_OMM_VERS = 2.0
CREATION_DATE  = 
ORIGINATOR     = 

OBJECT_NAME    = QPS-SAR-15
OBJECT_ID      = 2025-307A
CENTER_NAME    = EARTH
REF_FRAME      = TEME
TIME_SYSTEM    = UTC
MEAN_ELEMENT_THEORY = SGP/SGP4

EPOCH          = 2026-01-15T21:57:25.561152
MEAN_MOTION    = 14.97374122
ECCENTRICITY   = .00076751
INCLINATION    = 42.0084
RA_OF_ASC_NODE = 343.1788
ARG_OF_PERICENTER = 76.3108
MEAN_ANOMALY   = 283.8571

EPHEMERIS_TYPE = 0
CLASSIFICATION_TYPE = U
NORAD_CAT_ID   = 67228
ELEMENT_SET_NO = 999
REV_AT_EPOCH   = 384
BSTAR          = .28442635E-3
MEAN_MOTION_DOT = .3181E-4
MEAN_MOTION_DDOT = 0

CCSDS_OMM_VERS = 2.0
CREATION_DATE  = 
ORIGINATOR     = 

OBJECT_NAME    = ELECTRON KICK STAGE R/B
OBJECT_ID      = 2025-307C
CENTER_NAME    = EARTH
REF_FRAME      = TEME
TIME_SYSTEM    = UTC
MEAN_ELEMENT_THEORY = SGP/SGP4

EPOCH          = 2026-01-16T02:10:17.510016
MEAN_MOTION    = 16.44299347
ECCENTRICITY   = .0017239
INCLINATION    = 41.9939
RA_OF_ASC_NODE = 323.2498
ARG_OF_PERICENTER = 116.5376
MEAN_ANOMALY   = 243.7271

EPHEMERIS_TYPE = 0
CLASSIFICATION_TYPE = U
NORAD_CAT_ID   = 67230
ELEMENT_SET_NO = 999
REV_AT_EPOCH   = 248
BSTAR          = .45823E-3
MEAN_MOTION_DOT = .18058906E+0
MEAN_MOTION_DDOT = .85429E-5

CCSDS_OMM_VERS = 2.0
CREATION_DATE  = 
ORIGINATOR     = 

OBJECT_NAME    = SPACEMOBILE-006
OBJECT_ID      = 2025-309A
CENTER_NAME    = EARTH
REF_FRAME      = TEME
TIME_SYSTEM    = UTC
MEAN_ELEMENT_THEORY = SGP/SGP4

EPOCH          = 2026-01-15T23:14:37.486752
MEAN_MOTION    = 15.17742425
ECCENTRICITY   = .00119954
INCLINATION    = 52.9986
RA_OF_ASC_NODE = 308.4071
ARG_OF_PERICENTER = 31.9129
MEAN_ANOMALY   = 328.2588

EPHEMERIS_TYPE = 0
CLASSIFICATION_TYPE = U
NORAD_CAT_ID   = 67232
ELEMENT_SET_NO = 999
REV_AT_EPOCH   = 347
BSTAR          = -.4539885E-5
MEAN_MOTION_DOT = -.414E-5
MEAN_MOTION_DDOT = 0

CCSDS_OMM_VERS = 2.0
CREATION_DATE  = 
ORIGINATOR     = 

OBJECT_NAME    = LVM3 R/B
OBJECT_ID      = 2025-309B
CENTER_NAME    = EARTH
REF_FRAME      = TEME
TIME_SYSTEM    = UTC
MEAN_ELEMENT_THEORY = SGP/SGP4

EPOCH          = 2026-01-15T22:35:36.254976
MEAN_MOTION    = 15.19686813
ECCENTRICITY   = .0011818
INCLINATION    = 52.9289
RA_OF_ASC_NODE = 307.9949
ARG_OF_PERICENTER = 56.7302
MEAN_ANOMALY   = 303.4822

EPHEMERIS_TYPE = 0
CLASSIFICATION_TYPE = U
NORAD_CAT_ID   = 67233
ELEMENT_SET_NO = 999
REV_AT_EPOCH   = 347
BSTAR          = .25780004E-3
MEAN_MOTION_DOT = .5259E-4
MEAN_MOTION_DDOT = 0

CCSDS_OMM_VERS = 2.0
CREATION_DATE  = 
ORIGINATOR     = 

OBJECT_NAME    = 2025-310A
OBJECT_ID      = 2025-310A
CENTER_NAME    = EARTH
REF_FRAME      = TEME
TIME_SYSTEM    = UTC
MEAN_ELEMENT_THEORY = SGP/SGP4

EPOCH          = 2026-01-14T17:20:52.977696
MEAN_MOTION    = 14.75705364
ECCENTRICITY   = .0001912
INCLINATION    = 97.9664
RA_OF_ASC_NODE = 24.2349
ARG_OF_PERICENTER = 179.1290
MEAN_ANOMALY   = 180.9923

EPHEMERIS_TYPE = 0
CLASSIFICATION_TYPE = U
NORAD_CAT_ID   = 67234
ELEMENT_SET_NO = 999
REV_AT_EPOCH   = 299
BSTAR          = .869375E-5
MEAN_MOTION_DOT = .9E-7
MEAN_MOTION_DDOT = 0

